start=new Date('2022-12-21T00:00:00.000Z').valueOf();
sats=[{"FILE":"3713130","TIME_SYSTEM":"UTC","LAUNCH_DATE":"2020-04-22","NORAD_CAT_ID":"45563","GP_ID":"221023263","MEAN_MOTION":"15.06406685","REF_FRAME":"TEME","BSTAR":"0.00020553000000","MEAN_MOTION_DOT":"0.00002782","EPOCH":"2022-12-20T06:36:41.654304","EPHEMERIS_TYPE":"0","MEAN_ANOMALY":"294.9108","MEAN_MOTION_DDOT":"0.0000000000000","CENTER_NAME":"EARTH","TLE_LINE2":"2 45563  53.0586 323.2520 0001541  65.2041 294.9108 15.06406685148207","DECAY_DATE":null,"RA_OF_ASC_NODE":"323.2520","CLASSIFICATION_TYPE":"U","OBJECT_NAME":"STARLINK-1355","ELEMENT_SET_NO":"999","ECCENTRICITY":"0.00015410","OBJECT_TYPE":"PAYLOAD","PERIAPSIS":"546.126","APOAPSIS":"548.260","INCLINATION":"53.0586","RCS_SIZE":"LARGE","COUNTRY_CODE":"US","PERIOD":"95.592","TLE_LINE1":"1 45563U 20025AJ  22354.27548211  .00002782  00000-0  20553-3 0  9995","ARG_OF_PERICENTER":"65.2041","SITE":"AFETR","MEAN_ELEMENT_THEORY":"SGP4","SEMIMAJOR_AXIS":"6925.328","OBJECT_ID":"2020-025AJ","REV_AT_EPOCH":"14820"},{"APOAPSIS":"548.278","INCLINATION":"53.0531","PERIAPSIS":"546.001","OBJECT_TYPE":"PAYLOAD","OBJECT_NAME":"STARLINK-1356","ELEMENT_SET_NO":"999","ECCENTRICITY":"0.00016440","CLASSIFICATION_TYPE":"U","OBJECT_ID":"2020-025AK","REV_AT_EPOCH":"14822","SEMIMAJOR_AXIS":"6925.274","MEAN_ELEMENT_THEORY":"SGP4","ARG_OF_PERICENTER":"82.9412","SITE":"AFETR","PERIOD":"95.591","TLE_LINE1":"1 45564U 20025AK  22354.40450370  .00013641  00000-0  93231-3 0  9998","RCS_SIZE":"LARGE","COUNTRY_CODE":"US","REF_FRAME":"TEME","MEAN_MOTION":"15.06424284","GP_ID":"221023513","NORAD_CAT_ID":"45564","LAUNCH_DATE":"2020-04-22","TIME_SYSTEM":"UTC","FILE":"3713130","RA_OF_ASC_NODE":"322.6885","DECAY_DATE":null,"TLE_LINE2":"2 45564  53.0531 322.6885 0001644  82.9412 277.1764 15.06424284148225","MEAN_MOTION_DDOT":"0.0000000000000","CENTER_NAME":"EARTH","MEAN_ANOMALY":"277.1764","BSTAR":"0.00093231000000","MEAN_MOTION_DOT":"0.00013641","EPOCH":"2022-12-20T09:42:29.119680","EPHEMERIS_TYPE":"0"},{"DECAY_DATE":null,"RA_OF_ASC_NODE":"323.0141","MEAN_MOTION_DDOT":"0.0000000000000","CENTER_NAME":"EARTH","TLE_LINE2":"2 45565  53.0569 323.0141 0001488  65.3999 294.7145 15.06409055148214","EPOCH":"2022-12-20T07:56:18.337056","MEAN_MOTION_DOT":"0.00002062","BSTAR":"0.00015728000000","EPHEMERIS_TYPE":"0","MEAN_ANOMALY":"294.7145","REF_FRAME":"TEME","MEAN_MOTION":"15.06409055","NORAD_CAT_ID":"45565","LAUNCH_DATE":"2020-04-22","GP_ID":"221024265","FILE":"3713130","TIME_SYSTEM":"UTC","SEMIMAJOR_AXIS":"6925.321","REV_AT_EPOCH":"14821","OBJECT_ID":"2020-025AL","MEAN_ELEMENT_THEORY":"SGP4","SITE":"AFETR","ARG_OF_PERICENTER":"65.3999","RCS_SIZE":"LARGE","COUNTRY_CODE":"US","PERIOD":"95.592","TLE_LINE1":"1 45565U 20025AL  22354.33076779  .00002062  00000-0  15728-3 0  9998","PERIAPSIS":"546.155","APOAPSIS":"548.216","INCLINATION":"53.0569","OBJECT_NAME":"STARLINK-1357","ELEMENT_SET_NO":"999","ECCENTRICITY":"0.00014880","OBJECT_TYPE":"PAYLOAD","CLASSIFICATION_TYPE":"U"},{"DECAY_DATE":null,"RA_OF_ASC_NODE":"320.2671","EPHEMERIS_TYPE":"0","EPOCH":"2022-12-20T22:37:25.976928","MEAN_MOTION_DOT":"-0.00000375","BSTAR":"-0.00000628250000","MEAN_ANOMALY":"273.3858","CENTER_NAME":"EARTH","MEAN_MOTION_DDOT":"0.0000000000000","TLE_LINE2":"2 45566  53.0550 320.2671 0001605  86.7315 273.3858 15.06383359147707","MEAN_MOTION":"15.06383359","REF_FRAME":"TEME","FILE":"3713902","TIME_SYSTEM":"UTC","LAUNCH_DATE":"2020-04-22","NORAD_CAT_ID":"45566","GP_ID":"221039983","MEAN_ELEMENT_THEORY":"SGP4","SEMIMAJOR_AXIS":"6925.400","OBJECT_ID":"2020-025AM","REV_AT_EPOCH":"14770","COUNTRY_CODE":"US","RCS_SIZE":"LARGE","PERIOD":"95.593","TLE_LINE1":"1 45566U 20025AM  22354.94266177 -.00000375  00000-0 -62825-5 0  9998","ARG_OF_PERICENTER":"86.7315","SITE":"AFETR","PERIAPSIS":"546.153","INCLINATION":"53.0550","APOAPSIS":"548.376","CLASSIFICATION_TYPE":"U","ELEMENT_SET_NO":"999","ECCENTRICITY":"0.00016050","OBJECT_NAME":"STARLINK-1358","OBJECT_TYPE":"PAYLOAD"},{"PERIAPSIS":"546.068","INCLINATION":"53.0562","APOAPSIS":"548.325","CLASSIFICATION_TYPE":"U","ELEMENT_SET_NO":"999","ECCENTRICITY":"0.00016300","OBJECT_NAME":"STARLINK-1361","OBJECT_TYPE":"PAYLOAD","MEAN_ELEMENT_THEORY":"SGP4","SEMIMAJOR_AXIS":"6925.332","REV_AT_EPOCH":"14821","OBJECT_ID":"2020-025AN","COUNTRY_CODE":"US","RCS_SIZE":"LARGE","PERIOD":"95.592","TLE_LINE1":"1 45567U 20025AN  22354.29022505  .00000885  00000-0  78281-4 0  9998","SITE":"AFETR","ARG_OF_PERICENTER":"58.6181","MEAN_MOTION":"15.06405559","REF_FRAME":"TEME","TIME_SYSTEM":"UTC","FILE":"3713130","NORAD_CAT_ID":"45567","LAUNCH_DATE":"2020-04-22","GP_ID":"221023764","DECAY_DATE":null,"RA_OF_ASC_NODE":"323.1828","EPHEMERIS_TYPE":"0","EPOCH":"2022-12-20T06:57:55.444320","MEAN_MOTION_DOT":"0.00000885","BSTAR":"0.00007828100000","MEAN_ANOMALY":"301.4967","CENTER_NAME":"EARTH","MEAN_MOTION_DDOT":"0.0000000000000","TLE_LINE2":"2 45567  53.0562 323.1828 0001630  58.6181 301.4967 15.06405559148212"},{"REF_FRAME":"TEME","MEAN_MOTION":"15.06406411","GP_ID":"221031747","LAUNCH_DATE":"2020-04-22","NORAD_CAT_ID":"45568","FILE":"3713226","TIME_SYSTEM":"UTC","RA_OF_ASC_NODE":"321.8888","DECAY_DATE":null,"TLE_LINE2":"2 45568  53.0560 321.8888 0001685  49.4213 310.6922 15.06406411147654","MEAN_MOTION_DDOT":"0.0000000000000","CENTER_NAME":"EARTH","MEAN_ANOMALY":"310.6922","MEAN_MOTION_DOT":"0.00001905","BSTAR":"0.00014675000000","EPOCH":"2022-12-20T15:16:53.869440","EPHEMERIS_TYPE":"0","APOAPSIS":"548.361","INCLINATION":"53.0560","PERIAPSIS":"546.027","OBJECT_TYPE":"PAYLOAD","OBJECT_NAME":"STARLINK-1363","ELEMENT_SET_NO":"999","ECCENTRICITY":"0.00016850","CLASSIFICATION_TYPE":"U","REV_AT_EPOCH":"14765","OBJECT_ID":"2020-025AP","SEMIMAJOR_AXIS":"6925.329","MEAN_ELEMENT_THEORY":"SGP4","ARG_OF_PERICENTER":"49.4213","SITE":"AFETR","TLE_LINE1":"1 45568U 20025AP  22354.63673460  .00001905  00000-0  14675-3 0  9999","PERIOD":"95.592","RCS_SIZE":"LARGE","COUNTRY_CODE":"US"},{"MEAN_MOTION":"15.06403867","REF_FRAME":"TEME","TIME_SYSTEM":"UTC","FILE":"3713927","GP_ID":"221040269","NORAD_CAT_ID":"45569","LAUNCH_DATE":"2020-04-22","RA_OF_ASC_NODE":"320.5073","DECAY_DATE":null,"MEAN_ANOMALY":"326.2807","MEAN_MOTION_DOT":"0.00002141","BSTAR":"0.00016260000000","EPOCH":"2022-12-20T21:23:04.785504","EPHEMERIS_TYPE":"0","TLE_LINE2":"2 45569  53.0567 320.5073 0002253  33.8325 326.2807 15.06403867147698","MEAN_MOTION_DDOT":"0.0000000000000","CENTER_NAME":"EARTH","APOAPSIS":"548.762","INCLINATION":"53.0567","PERIAPSIS":"545.641","CLASSIFICATION_TYPE":"U","OBJECT_TYPE":"PAYLOAD","OBJECT_NAME":"STARLINK-1366","ECCENTRICITY":"0.00022530","ELEMENT_SET_NO":"999","MEAN_ELEMENT_THEORY":"SGP4","OBJECT_ID":"2020-025AQ","REV_AT_EPOCH":"14769","SEMIMAJOR_AXIS":"6925.337","PERIOD":"95.592","TLE_LINE1":"1 45569U 20025AQ  22354.89102761  .00002141  00000-0  16260-3 0  9994","RCS_SIZE":"LARGE","COUNTRY_CODE":"US","SITE":"AFETR","ARG_OF_PERICENTER":"33.8325"},{"MEAN_MOTION":"15.06411172","REF_FRAME":"TEME","FILE":"3713902","TIME_SYSTEM":"UTC","LAUNCH_DATE":"2020-04-22","NORAD_CAT_ID":"45570","GP_ID":"221039987","DECAY_DATE":null,"RA_OF_ASC_NODE":"320.5240","BSTAR":"0.00022685000000","MEAN_MOTION_DOT":"0.00003100","EPOCH":"2022-12-20T21:12:28.148832","EPHEMERIS_TYPE":"0","MEAN_ANOMALY":"299.1763","MEAN_MOTION_DDOT":"0.0000000000000","CENTER_NAME":"EARTH","TLE_LINE2":"2 45570  53.0553 320.5240 0001601  60.9386 299.1763 15.06411172147692","PERIAPSIS":"546.071","APOAPSIS":"548.288","INCLINATION":"53.0553","CLASSIFICATION_TYPE":"U","OBJECT_NAME":"STARLINK-1376","ECCENTRICITY":"0.00016010","ELEMENT_SET_NO":"999","OBJECT_TYPE":"PAYLOAD","MEAN_ELEMENT_THEORY":"SGP4","SEMIMAJOR_AXIS":"6925.314","REV_AT_EPOCH":"14769","OBJECT_ID":"2020-025AR","RCS_SIZE":"LARGE","COUNTRY_CODE":"US","TLE_LINE1":"1 45570U 20025AR  22354.88365913  .00003100  00000-0  22685-3 0  9999","PERIOD":"95.591","ARG_OF_PERICENTER":"60.9386","SITE":"AFETR"},{"TIME_SYSTEM":"UTC","FILE":"3713130","GP_ID":"221023264","LAUNCH_DATE":"2020-04-22","NORAD_CAT_ID":"45571","MEAN_MOTION":"15.06426158","REF_FRAME":"TEME","MEAN_ANOMALY":"319.5895","EPOCH":"2022-12-20T04:04:06.768192","MEAN_MOTION_DOT":"0.00005359","BSTAR":"0.00037813000000","EPHEMERIS_TYPE":"0","TLE_LINE2":"2 45571  53.0560 313.7253 0001860  40.5232 319.5895 15.06426158148346","MEAN_MOTION_DDOT":"0.0000000000000","CENTER_NAME":"EARTH","RA_OF_ASC_NODE":"313.7253","DECAY_DATE":null,"CLASSIFICATION_TYPE":"U","OBJECT_TYPE":"PAYLOAD","OBJECT_NAME":"STARLINK-1261","ECCENTRICITY":"0.00018600","ELEMENT_SET_NO":"999","APOAPSIS":"548.421","INCLINATION":"53.0560","PERIAPSIS":"545.845","TLE_LINE1":"1 45571U 20025AS  22354.16952278  .00005359  00000-0  37813-3 0  9994","PERIOD":"95.590","RCS_SIZE":"LARGE","COUNTRY_CODE":"US","SITE":"AFETR","ARG_OF_PERICENTER":"40.5232","MEAN_ELEMENT_THEORY":"SGP4","REV_AT_EPOCH":"14834","OBJECT_ID":"2020-025AS","SEMIMAJOR_AXIS":"6925.268"},{"TLE_LINE1":"1 45572U 20025AT  22354.62656445  .00003825  00000-0  27547-3 0  9992","PERIOD":"95.591","RCS_SIZE":"LARGE","COUNTRY_CODE":"US","SITE":"AFETR","ARG_OF_PERICENTER":"52.5314","MEAN_ELEMENT_THEORY":"SGP4","OBJECT_ID":"2020-025AT","REV_AT_EPOCH":"14779","SEMIMAJOR_AXIS":"6925.306","CLASSIFICATION_TYPE":"U","OBJECT_TYPE":"PAYLOAD","OBJECT_NAME":"STARLINK-1320","ECCENTRICITY":"0.00017380","ELEMENT_SET_NO":"999","APOAPSIS":"548.375","INCLINATION":"53.0546","PERIAPSIS":"545.968","MEAN_ANOMALY":"307.5833","MEAN_MOTION_DOT":"0.00003825","EPOCH":"2022-12-20T15:02:15.168480","BSTAR":"0.00027547000000","EPHEMERIS_TYPE":"0","TLE_LINE2":"2 45572  53.0546 311.6857 0001738  52.5314 307.5833 15.06413827147792","MEAN_MOTION_DDOT":"0.0000000000000","CENTER_NAME":"EARTH","RA_OF_ASC_NODE":"311.6857","DECAY_DATE":null,"FILE":"3713213","TIME_SYSTEM":"UTC","GP_ID":"221031533","LAUNCH_DATE":"2020-04-22","NORAD_CAT_ID":"45572","MEAN_MOTION":"15.06413827","REF_FRAME":"TEME"}];
